COMMENT,ORIGINATOR,NORAD_CAT_ID,OBJECT_NAME,OBJECT_TYPE,CLASSIFICATION_TYPE,INTLDES,EPOCH,EPOCH_MICROSECONDS,MEAN_MOTION,ECCENTRICITY,INCLINATION,RA_OF_ASC_NODE,ARG_OF_PERICENTER,MEAN_ANOMALY,EPHEMERIS_TYPE,ELEMENT_SET_NO,REV_AT_EPOCH,BSTAR,MEAN_MOTION_DOT,MEAN_MOTION_DDOT,FILE,TLE_LINE0,TLE_LINE1,TLE_LINE2,OBJECT_ID,OBJECT_NUMBER,SEMIMAJOR_AXIS,PERIOD,APOGEE,PERIGEE,DECAYED
GENERATED VIA SPACETRACK.ORG API,18 SPCS,26998,TIMED,PAYLOAD,U,01055B,1/9/24 21:23,942688,14.90589038,0.0002165,74.0695,219.7379,276.1731,83.9204,0,999,19808,0.00014469,0.00001378,0,4157773,0 TIMED,1 26998U 01055B   24009.89114517  .00001378  00000-0  14469-3 0  9992,2 26998  74.0695 219.7379 0002165 276.1731  83.9204 14.90589038198085,2001-055B,26998,6974.235,96.606,597.61,594.59,0
GENERATED VIA SPACETRACK.ORG API,18 SPCS,26998,TIMED,PAYLOAD,U,01055B,1/10/24 0:36,591808,14.90589383,0.0002173,74.0695,219.4698,276.467,83.6265,0,999,19824,0.00014438,0.00001375,0,4157818,0 TIMED,1 26998U 01055B   24010.02537722  .00001375  00000-0  14438-3 0  9999,2 26998  74.0695 219.4698 0002173 276.4670  83.6265 14.90589383198245,2001-055B,26998,6974.234,96.606,597.614,594.583,0
GENERATED VIA SPACETRACK.ORG API,18 SPCS,26998,TIMED,PAYLOAD,U,01055B,1/10/24 0:36,591808,14.90589383,0.0002173,74.0695,219.4698,276.467,83.6265,0,999,19810,0.00014438,0.00001375,0,4158336,0 TIMED,1 26998U 01055B   24010.02537722  .00001375  00000-0  14438-3 0  9999,2 26998  74.0695 219.4698 0002173 276.4670  83.6265 14.90589383198100,2001-055B,26998,6974.234,96.606,597.614,594.583,0
GENERATED VIA SPACETRACK.ORG API,18 SPCS,26998,TIMED,PAYLOAD,U,01055B,1/11/24 0:46,783520,14.90593713,0.0002182,74.0695,217.4583,276.7827,83.3107,0,999,19839,0.00017053,0.00001632,0,4158696,0 TIMED,1 26998U 01055B   24011.03211555  .00001632  00000-0  17053-3 0  9996,2 26998  74.0695 217.4583 0002182 276.7827  83.3107 14.90593713198393,2001-055B,26998,6974.22,96.606,597.607,594.563,0
GENERATED VIA SPACETRACK.ORG API,18 SPCS,26998,TIMED,PAYLOAD,U,01055B,1/11/24 15:16,990720,14.90596075,0.0002194,74.0695,216.2508,277.1207,82.9726,0,999,19834,0.00017856,0.0000171,0,4159265,0 TIMED,1 26998U 01055B   24011.63615730  .00001710  00000-0  17856-3 0  9993,2 26998  74.0695 216.2508 0002194 277.1207  82.9726 14.90596075198348,2001-055B,26998,6974.213,96.606,597.608,594.548,0
GENERATED VIA SPACETRACK.ORG API,18 SPCS,26998,TIMED,PAYLOAD,U,01055B,1/11/24 21:42,167136,14.90597149,0.0002197,74.0695,215.7144,277.2107,82.8825,0,999,19838,0.00018238,0.00001748,0,4159545,0 TIMED,1 26998U 01055B   24011.90461999  .00001748  00000-0  18238-3 0  9995,2 26998  74.0695 215.7144 0002197 277.2107  82.8825 14.90597149198387,2001-055B,26998,6974.209,96.606,597.607,594.542,0
GENERATED VIA SPACETRACK.ORG API,18 SPCS,26998,TIMED,PAYLOAD,U,01055B,1/12/24 12:12,262016,14.90599865,0.0002188,74.0695,214.5074,276.6987,83.3945,0,999,19861,0.00019471,0.00001869,0,4159884,0 TIMED,1 26998U 01055B   24012.50866044  .00001869  00000-0  19471-3 0  9996,2 26998  74.0695 214.5074 0002188 276.6987  83.3945 14.90599865198617,2001-055B,26998,6974.201,96.605,597.592,594.54,0
GENERATED VIA SPACETRACK.ORG API,18 SPCS,26998,TIMED,PAYLOAD,U,01055B,1/12/24 13:49,44672,14.90600172,0.000219,74.0696,214.3735,276.9454,83.1479,0,999,19848,0.00019559,0.00001877,0,4160109,0 TIMED,1 26998U 01055B   24012.57577598  .00001877  00000-0  19559-3 0  9992,2 26998  74.0696 214.3735 0002190 276.9454  83.1479 14.90600172198484,2001-055B,26998,6974.2,96.605,597.592,594.538,0
GENERATED VIA SPACETRACK.ORG API,18 SPCS,26998,TIMED,PAYLOAD,U,01055B,1/12/24 21:52,934624,14.90601376,0.0002195,74.0695,213.7026,276.2523,83.8409,0,999,19853,0.00019622,0.00001884,0,4160399,0 TIMED,1 26998U 01055B   24012.91135341  .00001884  00000-0  19622-3 0  9995,2 26998  74.0695 213.7026 0002195 276.2523  83.8409 14.90601376198537,2001-055B,26998,6974.196,96.605,597.592,594.53,0
GENERATED VIA SPACETRACK.ORG API,18 SPCS,26998,TIMED,PAYLOAD,U,01055B,1/13/24 13:58,616032,14.9060512,0.0002176,74.0695,212.3616,274.4985,85.5948,0,999,19863,0.0002186,0.00002103,0,4160970,0 TIMED,1 26998U 01055B   24013.58250713  .00002103  00000-0  21860-3 0  9992,2 26998  74.0695 212.3616 0002176 274.4985  85.5948 14.90605120198637,2001-055B,26998,6974.185,96.605,597.567,594.532,0
GENERATED VIA SPACETRACK.ORG API,18 SPCS,26998,TIMED,PAYLOAD,U,01055B,1/13/24 17:12,136416,14.90605742,0.0002181,74.0696,212.0933,274.5529,85.5403,0,999,19879,0.00022062,0.00002123,0,4161028,0 TIMED,1 26998U 01055B   24013.71673769  .00002123  00000-0  22062-3 0  9994,2 26998  74.0696 212.0933 0002181 274.5529  85.5403 14.90605742198791,2001-055B,26998,6974.183,96.605,597.569,594.527,0
GENERATED VIA SPACETRACK.ORG API,18 SPCS,26998,TIMED,PAYLOAD,U,01055B,1/14/24 14:08,916960,14.90609963,0.0002185,74.0695,210.3498,273.5831,86.5101,0,999,19878,0.00023374,0.00002252,0,4161833,0 TIMED,1 26998U 01055B   24014.58923515  .00002252  00000-0  23374-3 0  9997,2 26998  74.0695 210.3498 0002185 273.5831  86.5101 14.90609963198780,2001-055B,26998,6974.169,96.605,597.558,594.511,0
GENERATED VIA SPACETRACK.ORG API,18 SPCS,26998,TIMED,PAYLOAD,U,01055B,1/14/24 22:11,651392,14.90611745,0.0002204,74.0701,209.6792,274.2404,85.8526,0,999,19883,0.00025804,0.0000249,0,4162100,0 TIMED,1 26998U 01055B   24014.92481078  .00002490  00000-0  25804-3 0  9992,2 26998  74.0701 209.6792 0002204 274.2404  85.8526 14.90611745198832,2001-055B,26998,6974.164,96.605,597.566,594.492,0
GENERATED VIA SPACETRACK.ORG API,18 SPCS,26998,TIMED,PAYLOAD,U,01055B,1/14/24 23:48,389120,14.90612031,0.0002212,74.0701,209.5451,274.4207,85.6722,0,999,19898,0.00025706,0.0000248,0,4162203,0 TIMED,1 26998U 01055B   24014.99192580  .00002480  00000-0  25706-3 0  9996,2 26998  74.0701 209.5451 0002212 274.4207  85.6722 14.90612031198986,2001-055B,26998,6974.163,96.605,597.571,594.485,0
GENERATED VIA SPACETRACK.ORG API,18 SPCS,26998,TIMED,PAYLOAD,U,01055B,1/15/24 14:18,956096,14.90614821,0.0002203,74.0702,208.3379,274.0756,86.0175,0,999,19893,0.00025305,0.00002441,0,4162722,0 TIMED,1 26998U 01055B   24015.59596014  .00002441  00000-0  25305-3 0  9995,2 26998  74.0702 208.3379 0002203 274.0756  86.0175 14.90614821198939,2001-055B,26998,6974.154,96.604,597.556,594.483,0
GENERATED VIA SPACETRACK.ORG API,18 SPCS,26998,TIMED,PAYLOAD,U,01055B,1/15/24 22:21,556608,14.90616249,0.00022,74.0703,207.6672,273.5922,86.5009,0,999,19898,0.00024926,0.00002404,0,4162957,0 TIMED,1 26998U 01055B   24015.93153422  .00002404  00000-0  24926-3 0  9992,2 26998  74.0703 207.6672 0002200 273.5922  86.5009 14.90616249198986,2001-055B,26998,6974.15,96.604,597.549,594.481,0
GENERATED VIA SPACETRACK.ORG API,18 SPCS,26998,TIMED,PAYLOAD,U,01055B,1/16/24 12:51,936960,14.90619975,0.0002198,74.0703,206.4601,273.1937,86.8994,0,999,19921,0.00027037,0.00002611,0,4163330,0 TIMED,1 26998U 01055B   24016.53556640  .00002611  00000-0  27037-3 0  9994,2 26998  74.0703 206.4601 0002198 273.1937  86.8994 14.90619975199215,2001-055B,26998,6974.138,96.604,597.536,594.47,0
GENERATED VIA SPACETRACK.ORG API,18 SPCS,26998,TIMED,PAYLOAD,U,01055B,1/16/24 14:27,651360,14.90619931,0.0002199,74.0703,206.326,273.5254,86.5677,0,999,19908,0.0002604,0.00002514,0,4163580,0 TIMED,1 26998U 01055B   24016.60268115  .00002514  00000-0  26040-3 0  9994,2 26998  74.0703 206.3260 0002199 273.5254  86.5677 14.90619931199084,2001-055B,26998,6974.138,96.604,597.537,594.47,0
GENERATED VIA SPACETRACK.ORG API,18 SPCS,26998,TIMED,PAYLOAD,U,01055B,1/16/24 22:31,144736,14.90621422,0.0002206,74.0704,205.6554,273.4264,86.6665,0,999,19913,0.00025459,0.00002457,0,4163878,0 TIMED,1 26998U 01055B   24016.93825399  .00002457  00000-0  25459-3 0  9992,2 26998  74.0704 205.6554 0002206 273.4264  86.6665 14.90621422199134,2001-055B,26998,6974.134,96.604,597.537,594.46,0
GENERATED VIA SPACETRACK.ORG API,18 SPCS,26998,TIMED,PAYLOAD,U,01055B,1/17/24 14:37,47680,14.90625206,0.0002212,74.0704,204.314,273.1126,86.9803,0,999,19923,0.00026581,0.00002567,0,4164412,0 TIMED,1 26998U 01055B   24017.60939870  .00002567  00000-0  26581-3 0  9996,2 26998  74.0704 204.3140 0002212 273.1126  86.9803 14.90625206199234,2001-055B,26998,6974.122,96.604,597.53,594.444,0
GENERATED VIA SPACETRACK.ORG API,18 SPCS,26998,TIMED,PAYLOAD,U,01055B,1/17/24 19:27,89792,14.9062631,0.0002225,74.0704,203.9116,273.6726,86.4201,0,999,19940,0.00026904,0.00002599,0,4164489,0 TIMED,1 26998U 01055B   24017.81074178  .00002599  00000-0  26904-3 0  9994,2 26998  74.0704 203.9116 0002225 273.6726  86.4201 14.90626310199400,2001-055B,26998,6974.118,96.604,597.535,594.432,0
GENERATED VIA SPACETRACK.ORG API,18 SPCS,26998,TIMED,PAYLOAD,U,01055B,1/17/24 22:40,441696,14.90626685,0.0002226,74.0704,203.6434,273.6463,86.4465,0,999,19928,0.0002562,0.00002473,0,4164693,0 TIMED,1 26998U 01055B   24017.94497039  .00002473  00000-0  25620-3 0  9998,2 26998  74.0704 203.6434 0002226 273.6463  86.4465 14.90626685199282,2001-055B,26998,6974.117,96.604,597.535,594.43,0
GENERATED VIA SPACETRACK.ORG API,18 SPCS,26998,TIMED,PAYLOAD,U,01055B,1/18/24 14:47,135552,14.90630349,0.0002234,74.0705,202.3021,273.5359,86.5567,0,999,19938,0.00025914,0.00002502,0,4165274,0 TIMED,1 26998U 01055B   24018.61611268  .00002502  00000-0  25914-3 0  9994,2 26998  74.0705 202.3021 0002234 273.5359  86.5567 14.90630349199380,2001-055B,26998,6974.106,96.603,597.529,594.413,0
GENERATED VIA SPACETRACK.ORG API,18 SPCS,26998,TIMED,PAYLOAD,U,01055B,1/18/24 19:37,118912,14.90631397,0.0002242,74.0705,201.8997,273.5407,86.5519,0,999,19955,0.00026122,0.00002522,0,4165338,0 TIMED,1 26998U 01055B   24018.81745508  .00002522  00000-0  26122-3 0  9995,2 26998  74.0705 201.8997 0002242 273.5407  86.5519 14.90631397199559,2001-055B,26998,6974.103,96.603,597.531,594.404,0
